522 Helga,e,4.42076,116.80489,245.72457,3.6402637,0,0.0816513,172.38443,1/13/2016,2000.0,9,0.15
175 Andromache,e,3.21841,21.35338,320.44228,3.1855168,0,0.2326756,1.0058,1/13/2016,2000.0,8.31,0.15
191 Kolga,e,11.50774,159.31053,227.0976,2.8947355,0,0.0911163,286.17312,1/13/2016,2000.0,9.07,0.15
663 Gerlinde,e,17.82031,232.87754,310.8779,3.068611,0,0.1460985,99.38647,1/13/2016,2000.0,9.21,0.15
626 Notburga,e,25.37117,341.64531,43.70565,2.5730478,0,0.2429373,229.32483,1/13/2016,2000.0,9,0.15
387 Aquitania,e,18.13097,128.3007,157.23146,2.7393714,0,0.2362935,200.57696,1/13/2016,2000.0,7.41,0.15
42 Isis,e,8.51253,84.21183,237.25204,2.4428615,0,0.2221441,253.57772,1/13/2016,2000.0,7.53,0.15
30 Urania,e,2.09794,307.63071,86.7823,2.3654708,0,0.1265854,64.60658,1/13/2016,2000.0,7.57,0.15
50 Virginia,e,2.83796,173.53423,200.21526,2.6491327,0,0.2858117,244.03772,1/13/2016,2000.0,9.24,0.15
114 Kassandra,e,4.93665,164.22242,352.16465,2.6780083,0,0.1354198,152.09748,1/13/2016,2000.0,8.26,0.15
1021 Flammario,e,15.87062,115.44217,287.05098,2.7361381,0,0.2854588,196.56869,1/13/2016,2000.0,8.98,0.15
162 Laurentia,e,6.0974,35.53789,116.21448,3.0182544,0,0.1788835,262.4871,1/13/2016,2000.0,8.83,0.15
401 Ottilia,e,5.97142,36.15102,294.49513,3.3429765,0,0.0372034,140.86604,1/13/2016,2000.0,9.2,0.15
148 Gallia,e,25.30819,145.08625,252.66385,2.7744402,0,0.1849243,107.86581,1/13/2016,2000.0,7.63,0.15
404 Arsinoe,e,14.10409,92.61464,120.36345,2.5939324,0,0.1989566,354.40329,1/13/2016,2000.0,9.01,0.15
27 Euterpe,e,1.58368,94.79841,356.61247,2.3466524,0,0.1722079,6.15594,1/13/2016,2000.0,7,0.15
773 Irmintraud,e,16.68833,322.41132,332.04031,2.8571431,0,0.0806085,179.278,1/13/2016,2000.0,9.1,0.15
21 Lutetia,e,3.0636,80.88186,250.09404,2.4347872,0,0.1646284,32.8481,1/13/2016,2000.0,7.35,0.11
62 Erato,e,2.23,125.56943,274.07713,3.1270803,0,0.1709818,28.84954,1/13/2016,2000.0,8.76,0.15
26 Proserpina,e,3.56398,45.7851,194.16334,2.6542069,0,0.0906155,191.58131,1/13/2016,2000.0,7.5,0.15
345 Tercidina,e,9.7472,212.63309,230.31509,2.3253763,0,0.0612168,233.05792,1/13/2016,2000.0,8.71,0.1
58 Concordia,e,5.06576,161.12205,29.93352,2.699572,0,0.0432552,32.77466,1/13/2016,2000.0,8.86,0.15
229 Adelinda,e,2.07874,28.04954,311.35102,3.422335,0,0.1391495,46.81341,1/13/2016,2000.0,9.13,0.15
103 Hera,e,5.41949,136.18761,188.44723,2.7013664,0,0.0812185,88.84473,1/13/2016,2000.0,7.66,0.15
17 Thetis,e,5.59071,125.56585,136.05068,2.4706208,0,0.1323498,358.99773,1/13/2016,2000.0,7.76,0.15
143 Adria,e,11.4486,333.0717,253.31085,2.7608016,0,0.0740942,182.30905,1/13/2016,2000.0,9.12,0.15
109 Felicitas,e,7.88135,3.162,56.38554,2.6971005,0,0.2968217,346.18619,1/13/2016,2000.0,8.75,0.04
100 Hekate,e,6.42976,127.20278,184.77268,3.0898061,0,0.1683974,28.31771,1/13/2016,2000.0,7.67,0.15
90 Antiope,e,2.2072,69.97345,244.87504,3.1486846,0,0.1652258,293.61968,1/13/2016,2000.0,8.27,0.15
227 Philosophia,e,9.15441,326.25268,266.97574,3.1629958,0,0.190677,36.27023,1/13/2016,2000.0,9.1,0.15
110 Lydia,e,5.96474,56.87452,283.58211,2.7320879,0,0.0809131,304.61604,1/13/2016,2000.0,7.8,0.2
72 Feronia,e,5.41638,207.97251,103.08851,2.2662831,0,0.1210367,19.89159,1/13/2016,2000.0,8.94,0.15
60558 Echeclus,e,4.34448,173.33521,162.88888,10.6803198,0,0.4553712,7.511,1/13/2016,2000.0,9.6,0.15
71 Niobe,e,23.26503,316.03349,266.71567,2.755787,0,0.1733308,5.88838,1/13/2016,2000.0,7.3,0.4
102 Miriam,e,5.17803,210.85753,147.26541,2.661045,0,0.2529919,338.48869,1/13/2016,2000.0,9.26,0.15
97 Klotho,e,11.78392,159.70618,268.62204,2.6708496,0,0.2545995,39.97296,1/13/2016,2000.0,7.63,0.15
61 Danae,e,18.21206,333.72723,12.80773,2.9826362,0,0.1672116,42.12571,1/13/2016,2000.0,7.68,0.15
122 Gerda,e,1.63998,178.14437,321.40383,3.2234294,0,0.0326653,129.76924,1/13/2016,2000.0,7.87,0.15
83 Beatrix,e,4.96449,27.7454,168.94556,2.4316552,0,0.0820411,277.47442,1/13/2016,2000.0,8.66,0.15
32 Pomona,e,5.52345,220.44828,339.07342,2.5879758,0,0.0802892,108.28858,1/13/2016,2000.0,7.56,0.15
115 Thyra,e,11.59988,308.91252,96.82323,2.379864,0,0.1917574,54.8563,1/13/2016,2000.0,7.51,0.12
135 Hertha,e,2.3058,343.6568,340.29103,2.4280046,0,0.207803,25.26463,1/13/2016,2000.0,8.23,0.15
84 Klio,e,9.32993,327.60011,14.74064,2.3627345,0,0.2361581,142.12503,1/13/2016,2000.0,9.32,0.15
80 Sappho,e,8.66428,218.76108,139.22663,2.2961742,0,0.1998574,117.81247,1/13/2016,2000.0,7.98,0.15
1001 Gaussia,e,9.29643,259.34269,142.23448,3.2083305,0,0.126751,18.42988,1/13/2016,2000.0,9.7,0.15
58534 Logos,e,2.89504,132.49523,339.05346,45.5184121,0,0.1226962,56.67046,1/13/2016,2000.0,6.6,0.15
124 Alkeste,e,2.95634,187.98834,61.22229,2.6314316,0,0.0758581,297.78468,1/13/2016,2000.0,8.11,0.19
55576 Amycus,e,13.35246,315.45374,239.17192,25.0973292,0,0.3952438,37.04286,1/13/2016,2000.0,7.8,0.15
25 Phocaea,e,21.59027,214.17462,90.11177,2.4007941,0,0.2548171,215.0436,1/13/2016,2000.0,7.83,0.15
8405 Asbolus,e,17.63988,6.15264,290.181,17.9862637,0,0.6194854,63.61303,1/13/2016,2000.0,9.1,0.15
112 Iphigenia,e,2.60385,323.536,16.58923,2.4332649,0,0.1284929,118.15329,1/13/2016,2000.0,9.84,0.15
86047 1999 OY3,e,24.2597,301.85343,303.74322,43.7058156,0,0.1706563,62.42379,1/13/2016,2000.0,6.8,0.15
99 Dike,e,13.84783,41.53154,195.38055,2.6655853,0,0.1950622,332.9167,1/13/2016,2000.0,9.43,0.15
66 Maja,e,3.04719,7.52397,44.15626,2.6482274,0,0.1713059,104.11704,1/13/2016,2000.0,9.36,0.15
116 Sirona,e,3.56359,63.73685,95.00416,2.7662174,0,0.1420932,324.6873,1/13/2016,2000.0,7.82,0.15
44 Nysa,e,3.70689,131.55827,343.26863,2.4228674,0,0.1485711,129.242,1/13/2016,2000.0,7.03,0.46
10370 Hylonome,e,4.14524,178.08726,6.30783,25.075451,0,0.2481969,59.20986,1/13/2016,2000.0,8.6,0.15
77 Frigga,e,2.42922,1.27879,60.87369,2.6689973,0,0.1304458,13.17896,1/13/2016,2000.0,8.52,0.16
55 Pandora,e,7.18608,10.42401,4.13939,2.7609594,0,0.142167,104.63468,1/13/2016,2000.0,7.7,0.15
133 Cyrene,e,7.22207,319.09908,289.67016,3.0654644,0,0.1369821,279.45005,1/13/2016,2000.0,7.98,0.13
79 Eurynome,e,4.61714,206.62257,200.82543,2.4447408,0,0.1913107,279.81895,1/13/2016,2000.0,7.96,0.25
43 Ariadne,e,3.4706,264.86203,16.27908,2.2028632,0,0.1688059,136.23515,1/13/2016,2000.0,7.93,0.11
101 Helena,e,10.20147,343.42541,347.75956,2.5855148,0,0.1397954,189.17878,1/13/2016,2000.0,8.33,0.35
108 Hecuba,e,4.22066,350.01405,204.49757,3.238964,0,0.055519,132.98487,1/13/2016,2000.0,8.09,0.15
52975 Cyllarus,e,12.64413,52.02399,301.3005,26.1958075,0,0.3769223,70.77731,1/13/2016,2000.0,9.4,0.15
82 Alkmene,e,2.82901,25.50143,111.36047,2.7648307,0,0.2186711,278.20208,1/13/2016,2000.0,8.4,0.28
60 Echo,e,3.60117,191.59616,270.96323,2.3931915,0,0.1834051,249.21198,1/13/2016,2000.0,8.21,0.27
7066 Nessus,e,15.66545,31.17542,170.38639,24.5039895,0,0.5202163,71.01298,1/13/2016,2000.0,9.6,0.15
64 Angelina,e,1.31011,309.14814,178.73782,2.6810281,0,0.1263662,129.43366,1/13/2016,2000.0,7.67,0.48
67 Asia,e,6.03007,202.44551,107.16279,2.4214042,0,0.1848599,324.48911,1/13/2016,2000.0,8.28,0.15
119 Althaea,e,5.78304,203.67928,169.90228,2.5810493,0,0.0807417,67.43763,1/13/2016,2000.0,8.42,0.15
75 Eurydike,e,5.00113,359.42204,339.40621,2.6718947,0,0.3055779,51.04557,1/13/2016,2000.0,8.96,0.23
142 Polana,e,2.23807,291.27543,291.96195,2.4188114,0,0.1345066,88.56329,1/13/2016,2000.0,10.27,0.15
253 Mathilde,e,6.74142,179.59941,157.32872,2.6469938,0,0.2655272,124.88844,1/13/2016,2000.0,10.3,0.15
52872 Okyrhoe,e,15.66489,173.02841,337.79272,8.3478266,0,0.3067007,118.91855,1/13/2016,2000.0,10.8,0.15
4348 Poulydamas,e,7.9576,220.11585,160.43579,5.2406456,0,0.0979833,75.91556,1/13/2016,2000.0,9.6,0.15
123 Brunhild,e,6.41858,307.86468,125.80794,2.696149,0,0.1186297,52.48233,1/13/2016,2000.0,8.9,0.15
1000 Piazzia,e,20.57004,323.76556,280.82115,3.1721432,0,0.2574687,138.45543,1/13/2016,2000.0,10.6,0.15
113 Amalthea,e,5.04222,123.48948,79.05638,2.3762864,0,0.0865307,172.72009,1/13/2016,2000.0,8.74,0.35
138 Tolosa,e,3.20387,54.76268,260.82774,2.448648,0,0.1621909,296.84477,1/13/2016,2000.0,8.75,0.15
126 Velleda,e,2.92492,23.31868,328.48906,2.4385792,0,0.1061319,250.35991,1/13/2016,2000.0,9.27,0.15
73 Klytia,e,2.37096,7.03279,52.93342,2.664561,0,0.0437405,244.19986,1/13/2016,2000.0,8.9,0.15
125 Liberatrix,e,4.66324,169.00004,108.90046,2.7455323,0,0.0779499,265.03422,1/13/2016,2000.0,9.04,0.33
132 Aethra,e,24.99571,258.41605,255.22149,2.6075126,0,0.3903918,351.44485,1/13/2016,2000.0,9.38,0.15
118 Peitho,e,7.74277,47.70494,33.34681,2.4371117,0,0.1630439,359.40386,1/13/2016,2000.0,9.14,0.15
208 Lacrimosa,e,1.7458,4.26079,108.32447,2.8926883,0,0.0132123,169.75933,1/13/2016,2000.0,8.96,0.15
136 Austria,e,9.57816,186.46178,132.72558,2.2872602,0,0.0845904,235.03138,1/13/2016,2000.0,9.69,0.15
131 Vala,e,4.96046,65.68844,160.85492,2.4313605,0,0.0682324,237.06405,1/13/2016,2000.0,10.03,0.15
167 Urda,e,2.21231,166.21976,133.0703,2.8534206,0,0.0364584,356.68758,1/13/2016,2000.0,9.1,0.15
158 Koronis,e,1.00136,277.97339,142.35941,2.8691064,0,0.0523082,334.78436,1/13/2016,2000.0,9.27,0.15
243 Ida,e,1.13214,324.0172,110.84104,2.861148,0,0.0411866,358.08436,1/13/2016,2000.0,9.94,0.15
226 Weringia,e,15.966,134.96973,154.11379,2.712215,0,0.2030319,330.7458,1/13/2016,2000.0,9.9,0.15
433 Eros,e,10.82861,304.32983,178.79795,1.4578778,0,0.2226787,95.3612,1/13/2016,2000.0,11.16,0.46
1036 Ganymed,e,26.69239,215.55546,132.47899,2.6632764,0,0.5339514,1.82013,1/13/2016,2000.0,9.45,0.3
1815 Beethoven,e,2.73825,110.93878,358.77932,3.1554515,0,0.1872701,355.24468,1/13/2016,2000.0,11.36,0.15
31824 Elatus,e,5.24503,87.0968,281.88578,11.8161862,0,0.3797171,155.75427,1/13/2016,2000.0,10.1,0.15
149 Medusa,e,0.93921,159.61769,250.70789,2.1744474,0,0.0654465,219.11413,1/13/2016,2000.0,10.79,0.15
2002 Euler,e,8.50256,178.65445,53.85623,2.4170397,0,0.0690012,202.4546,1/13/2016,2000.0,12.4,0.15
2685 Masursky,e,12.12694,215.36354,288.18879,2.5693722,0,0.1095878,223.76909,1/13/2016,2000.0,12.2,0.15
65407 2002 RP120,e,118.99969,39.23838,357.99482,54.7829283,0,0.9548049,11.77765,1/13/2016,2000.0,12.3,0.15
